HIMAWARI-9
1 41836U 16064A   26187.74520736  .00000000  00000+0  00000+0 0  9995
2 41836   0.0139   7.6261 0002183 165.0123 161.1215  1.00270250 35407
